[{"OBJECT_NAME":"ONEWEB-0012","OBJECT_ID":"2019-010A","EPOCH":"2025-08-31T04:08:48.456384","MEAN_MOTION":13.16593336,"ECCENTRICITY":0.00022707,"INCLINATION":87.8996,"RA_OF_ASC_NODE":286.6077,"ARG_OF_PERICENTER":87.0733,"MEAN_ANOMALY":273.0658,"EPHEMERIS_TYPE":0,"CLASSIFICATION_TYPE":"U","NORAD_CAT_ID":44057,"ELEMENT_SET_NO":999,"REV_AT_EPOCH":31340,"BSTAR":0.00016550112,"MEAN_MOTION_DOT":7.6e-7,"MEAN_MOTION_DDOT":0},{"OBJECT_NAME":"ONEWEB-0010","OBJECT_ID":"2019-010B","EPOCH":"2025-08-31T04:45:17.455680","MEAN_MOTION":13.16593691,"ECCENTRICITY":0.00015255,"INCLINATION":87.8998,"RA_OF_ASC_NODE":286.5855,"ARG_OF_PERICENTER":89.2185,"MEAN_ANOMALY":270.9121,"EPHEMERIS_TYPE":0,"CLASSIFICATION_TYPE":"U","NORAD_CAT_ID":44058,"ELEMENT_SET_NO":999,"REV_AT_EPOCH":31345,"BSTAR":0.0001279035,"MEAN_MOTION_DOT":6.2e-7,"MEAN_MOTION_DDOT":0},{"OBJECT_NAME":"ONEWEB-0008","OBJECT_ID":"2019-010C","EPOCH":"2025-08-31T03:32:18.791808","MEAN_MOTION":13.16595513,"ECCENTRICITY":0.00020355,"INCLINATION":87.8996,"RA_OF_ASC_NODE":286.5935,"ARG_OF_PERICENTER":98.812,"MEAN_ANOMALY":261.3241,"EPHEMERIS_TYPE":0,"CLASSIFICATION_TYPE":"U","NORAD_CAT_ID":44059,"ELEMENT_SET_NO":999,"REV_AT_EPOCH":31356,"BSTAR":-2.8004724e-5,"MEAN_MOTION_DOT":2.0e-8,"MEAN_MOTION_DDOT":0},{"OBJECT_NAME":"ONEWEB-0007","OBJECT_ID":"2019-010D","EPOCH":"2025-08-31T04:19:41.346624","MEAN_MOTION":13.15547492,"ECCENTRICITY":0.00017559,"INCLINATION":87.906,"RA_OF_ASC_NODE":317.0895,"ARG_OF_PERICENTER":87.9349,"MEAN_ANOMALY":272.1983,"EPHEMERIS_TYPE":0,"CLASSIFICATION_TYPE":"U","NORAD_CAT_ID":44060,"ELEMENT_SET_NO":999,"REV_AT_EPOCH":31324,"BSTAR":-5.4081844e-5,"MEAN_MOTION_DOT":-8.0e-8,"MEAN_MOTION_DDOT":0},{"OBJECT_NAME":"ONEWEB-0006","OBJECT_ID":"2019-010E","EPOCH":"2025-08-31T04:25:22.491840","MEAN_MOTION":13.15548182,"ECCENTRICITY":0.00016908,"INCLINATION":87.9059,"RA_OF_ASC_NODE":317.0294,"ARG_OF_PERICENTER":92.1329,"MEAN_ANOMALY":267.9995,"EPHEMERIS_TYPE":0,"CLASSIFICATION_TYPE":"U","NORAD_CAT_ID":44061,"ELEMENT_SET_NO":999,"REV_AT_EPOCH":31329,"BSTAR":0.0003084956,"MEAN_MOTION_DOT":1.29e-6,"MEAN_MOTION_DDOT":0},{"OBJECT_NAME":"ONEWEB-0011","OBJECT_ID":"2019-010F","EPOCH":"2025-08-31T05:29:17.504448","MEAN_MOTION":13.15549071,"ECCENTRICITY":0.00017682,"INCLINATION":87.9065,"RA_OF_ASC_NODE":317.0323,"ARG_OF_PERICENTER":104.0614,"MEAN_ANOMALY":256.0713,"EPHEMERIS_TYPE":0,"CLASSIFICATION_TYPE":"U","NORAD_CAT_ID":44062,"ELEMENT_SET_NO":999,"REV_AT_EPOCH":31329,"BSTAR":-0.00029541758,"MEAN_MOTION_DOT":-9.8e-7,"MEAN_MOTION_DDOT":0},{"OBJECT_NAME":"ONEWEB-0013","OBJECT_ID":"2020-008A","EPOCH":"2025-08-31T04:30:48.805632","MEAN_MOTION":13.09427158,"ECCENTRICITY":0.00026269,"INCLINATION":87.85,"RA_OF_ASC_NODE":111.3954,"ARG_OF_PERICENTER":71.4642,"MEAN_ANOMALY":288.677,"EPHEMERIS_TYPE":0,"CLASSIFICATION_TYPE":"U","NORAD_CAT_ID":45131,"ELEMENT_SET_NO":999,"REV_AT_EPOCH":26811,"BSTAR":-0.00091481788,"MEAN_MOTION_DOT":-3.02e-6,"MEAN_MOTION_DDOT":0},{"OBJECT_NAME":"ONEWEB-0017","OBJECT_ID":"2020-008B","EPOCH":"2025-08-31T03:31:10.915968","MEAN_MOTION":13.10374458,"ECCENTRICITY":0.00013834,"INCLINATION":87.875,"RA_OF_ASC_NODE":94.1217,"ARG_OF_PERICENTER":81.5691,"MEAN_ANOMALY":278.5593,"EPHEMERIS_TYPE":0,"CLASSIFICATION_TYPE":"U","NORAD_CAT_ID":45132,"ELEMENT_SET_NO":999,"REV_AT_EPOCH":26996,"BSTAR":-0.0015576193,"MEAN_MOTION_DOT":-5.31e-6,"MEAN_MOTION_DDOT":0},{"OBJECT_NAME":"ONEWEB-0020","OBJECT_ID":"2020-008C","EPOCH":"2025-08-31T02:48:09.004032","MEAN_MOTION":13.1037496,"ECCENTRICITY":0.00016344,"INCLINATION":87.8752,"RA_OF_ASC_NODE":94.1111,"ARG_OF_PERICENTER":89.9685,"MEAN_ANOMALY":270.1629,"EPHEMERIS_TYPE":0,"CLASSIFICATION_TYPE":"U","NORAD_CAT_ID":45133,"ELEMENT_SET_NO":999,"REV_AT_EPOCH":27035,"BSTAR":0.0018333331,"MEAN_MOTION_DOT":6.53e-6,"MEAN_MOTION_DDOT":0},{"OBJECT_NAME":"ONEWEB-0021","OBJECT_ID":"2020-008D","EPOCH":"2025-08-31T03:09:40.118112","MEAN_MOTION":13.10368586,"ECCENTRICITY":0.00016489,"INCLINATION":87.875,"RA_OF_ASC_NODE":94.1422,"ARG_OF_PERICENTER":79.5729,"MEAN_ANOMALY":280.5584,"EPHEMERIS_TYPE":0,"CLASSIFICATION_TYPE":"U","NORAD_CAT_ID":45134,"ELEMENT_SET_NO":999,"REV_AT_EPOCH":27066,"BSTAR":0.00057125561,"MEAN_MOTION_DOT":2.12e-6,"MEAN_MOTION_DDOT":0},{"OBJECT_NAME":"ONEWEB-0023","OBJECT_ID":"2020-008F","EPOCH":"2025-08-31T03:25:12.028512","MEAN_MOTION":13.10370287,"ECCENTRICITY":0.00018829,"INCLINATION":87.8747,"RA_OF_ASC_NODE":94.1226,"ARG_OF_PERICENTER":88.4535,"MEAN_ANOMALY":271.6808,"EPHEMERIS_TYPE":0,"CLASSIFICATION_TYPE":"U","NORAD_CAT_ID":45136,"ELEMENT_SET_NO":999,"REV_AT_EPOCH":27009,"BSTAR":-0.0011135162,"MEAN_MOTION_DOT":-3.76e-6,"MEAN_MOTION_DDOT":0},{"OBJECT_NAME":"ONEWEB-0024","OBJECT_ID":"2020-008G","EPOCH":"2025-08-31T02:45:47.383200","MEAN_MOTION":13.10371977,"ECCENTRICITY":0.00015996,"INCLINATION":87.8763,"RA_OF_ASC_NODE":94.0781,"ARG_OF_PERICENTER":81.0549,"MEAN_ANOMALY":279.0759,"EPHEMERIS_TYPE":0,"CLASSIFICATION_TYPE":"U","NORAD_CAT_ID":45137,"ELEMENT_SET_NO":999,"REV_AT_EPOCH":27025,"BSTAR":0.0020534525,"MEAN_MOTION_DOT":7.3e-6,"MEAN_MOTION_DDOT":0},{"OBJECT_NAME":"ONEWEB-0025","OBJECT_ID":"2020-008H","EPOCH":"2025-08-31T03:10:53.078592","MEAN_MOTION":13.10369594,"ECCENTRICITY":0.00021806,"INCLINATION":87.8766,"RA_OF_ASC_NODE":94.0843,"ARG_OF_PERICENTER":75.0854,"MEAN_ANOMALY":285.0515,"EPHEMERIS_TYPE":0,"CLASSIFICATION_TYPE":"U","NORAD_CAT_ID":45138,"ELEMENT_SET_NO":999,"REV_AT_EPOCH":27058,"BSTAR":0.00056586961,"MEAN_MOTION_DOT":2.1e-6,"MEAN_MOTION_DDOT":0},{"OBJECT_NAME":"ONEWEB-0026","OBJECT_ID":"2020-008J","EPOCH":"2025-08-31T01:52:40.522656","MEAN_MOTION":13.11415471,"ECCENTRICITY":0.00015036,"INCLINATION":87.8776,"RA_OF_ASC_NODE":78.8712,"ARG_OF_PERICENTER":89.5725,"MEAN_ANOMALY":270.5575,"EPHEMERIS_TYPE":0,"CLASSIFICATION_TYPE":"U","NORAD_CAT_ID":45139,"ELEMENT_SET_NO":999,"REV_AT_EPOCH":27308,"BSTAR":0.0014275563,"MEAN_MOTION_DOT":5.19e-6,"MEAN_MOTION_DDOT":0},{"OBJECT_NAME":"ONEWEB-0028","OBJECT_ID":"2020-008K","EPOCH":"2025-08-31T06:20:00.346560","MEAN_MOTION":13.11416089,"ECCENTRICITY":0.00022606,"INCLINATION":87.8773,"RA_OF_ASC_NODE":78.8546,"ARG_OF_PERICENTER":77.4883,"MEAN_ANOMALY":282.6498,"EPHEMERIS_TYPE":0,"CLASSIFICATION_TYPE":"U","NORAD_CAT_ID":45140,"ELEMENT_SET_NO":999,"REV_AT_EPOCH":27062,"BSTAR":-0.0013613629,"MEAN_MOTION_DOT":-4.7e-6,"MEAN_MOTION_DDOT":0},{"OBJECT_NAME":"ONEWEB-0032","OBJECT_ID":"2020-008L","EPOCH":"2025-08-31T03:33:34.110144","MEAN_MOTION":13.10367078,"ECCENTRICITY":0.00017801,"INCLINATION":87.8746,"RA_OF_ASC_NODE":94.1223,"ARG_OF_PERICENTER":80.9314,"MEAN_ANOMALY":279.2015,"EPHEMERIS_TYPE":0,"CLASSIFICATION_TYPE":"U","NORAD_CAT_ID":45141,"ELEMENT_SET_NO":999,"REV_AT_EPOCH":27031,"BSTAR":-0.001589182,"MEAN_MOTION_DOT":-5.42e-6,"MEAN_MOTION_DDOT":0},{"OBJECT_NAME":"ONEWEB-0033","OBJECT_ID":"2020-008M","EPOCH":"2025-08-31T02:57:44.285472","MEAN_MOTION":13.10369799,"ECCENTRICITY":0.00014684,"INCLINATION":87.8746,"RA_OF_ASC_NODE":94.1391,"ARG_OF_PERICENTER":83.3354,"MEAN_ANOMALY":276.794,"EPHEMERIS_TYPE":0,"CLASSIFICATION_TYPE":"U","NORAD_CAT_ID":45142,"ELEMENT_SET_NO":999,"REV_AT_EPOCH":27022,"BSTAR":0.0015587163,"MEAN_MOTION_DOT":5.57e-6,"MEAN_MOTION_DDOT":0}]
