ONEWEB-0012             
1 44057U 19010A   25243.17278306  .00000076  00000+0  16550-3 0  9993
2 44057  87.8996 286.6077 0002270  87.0733 273.0658 13.16593336313406
ONEWEB-0010             
1 44058U 19010B   25243.19811870  .00000062  00000+0  12790-3 0  9992
2 44058  87.8998 286.5855 0001525  89.2185 270.9121 13.16593691313459
ONEWEB-0008             
1 44059U 19010C   25243.14743972  .00000002  00000+0 -28005-4 0  9997
2 44059  87.8996 286.5935 0002035  98.8120 261.3241 13.16595513313563
ONEWEB-0007             
1 44060U 19010D   25243.18033966 -.00000008  00000+0 -54082-4 0  9999
2 44060  87.9060 317.0895 0001755  87.9349 272.1983 13.15547492313243
ONEWEB-0006             
1 44061U 19010E   25243.18428810  .00000129  00000+0  30850-3 0  9994
2 44061  87.9059 317.0294 0001690  92.1329 267.9995 13.15548182313296
ONEWEB-0011             
1 44062U 19010F   25243.22867482 -.00000098  00000+0 -29542-3 0  9995
2 44062  87.9065 317.0323 0001768 104.0614 256.0713 13.15549071313298
ONEWEB-0013             
1 45131U 20008A   25243.18806488 -.00000302  00000+0 -91482-3 0  9996
2 45131  87.8500 111.3954 0002626  71.4642 288.6770 13.09427158268114
ONEWEB-0017             
1 45132U 20008B   25243.14665412 -.00000531  00000+0 -15576-2 0  9996
2 45132  87.8750  94.1217 0001383  81.5691 278.5593 13.10374458269968
ONEWEB-0020             
1 45133U 20008C   25243.11677088  .00000653  00000+0  18333-2 0  9993
2 45133  87.8752  94.1111 0001634  89.9685 270.1629 13.10374960270359
ONEWEB-0021             
1 45134U 20008D   25243.13171433  .00000212  00000+0  57126-3 0  9994
2 45134  87.8750  94.1422 0001648  79.5729 280.5584 13.10368586270668
ONEWEB-0023             
1 45136U 20008F   25243.14250033 -.00000376  00000+0 -11135-2 0  9993
2 45136  87.8747  94.1226 0001882  88.4535 271.6808 13.10370287270090
ONEWEB-0024             
1 45137U 20008G   25243.11513175  .00000730  00000+0  20535-2 0  9996
2 45137  87.8763  94.0781 0001599  81.0549 279.0759 13.10371977270255
ONEWEB-0025             
1 45138U 20008H   25243.13255878  .00000210  00000+0  56587-3 0  9992
2 45138  87.8766  94.0843 0002180  75.0854 285.0515 13.10369594270582
ONEWEB-0026             
1 45139U 20008J   25243.07824679  .00000519  00000+0  14276-2 0  9997
2 45139  87.8776  78.8712 0001503  89.5725 270.5575 13.11415471273084
ONEWEB-0028             
1 45140U 20008K   25243.26389290 -.00000470  00000+0 -13614-2 0  9998
2 45140  87.8773  78.8546 0002260  77.4883 282.6498 13.11416089270621
ONEWEB-0032             
1 45141U 20008L   25243.14831146 -.00000542  00000+0 -15892-2 0  9998
2 45141  87.8746  94.1223 0001780  80.9314 279.2015 13.10367078270314
ONEWEB-0033             
1 45142U 20008M   25243.12342923  .00000557  00000+0  15587-2 0  9992
2 45142  87.8746  94.1391 0001468  83.3354 276.7940 13.10369799270226
